{
  "type": "FeatureCollection",
  "features": [
    {
      "type": "Feature",
      "properties": {
        "norad_id": 41384,
        "name": "IRNSS-1F",
        "group": "gnss",
        "lat": 4.772677736066159,
        "lon": -159.48066909437873,
        "alt_km": 35770.43646969682,
        "timestamp": "2025-12-02T06:27:53.256795+00:00",
        "meta_object_name": "IRNSS-1F",
        "meta_object_id": "2016-015A",
        "meta_epoch": "2025-12-01T13:58:09.226272",
        "meta_mean_motion": 1.002668,
        "meta_eccentricity": 0.00223665,
        "meta_inclination": 4.8523,
        "meta_ra_of_asc_node": 101.5772,
        "meta_arg_of_pericenter": 179.3166,
        "meta_mean_anomaly": 31.7686,
        "meta_ephemeris_type": 0,
        "meta_classification_type": "U",
        "meta_norad_cat_id": 41384,
        "meta_element_set_no": 999,
        "meta_rev_at_epoch": 3568,
        "meta_bstar": 0,
        "meta_mean_motion_dot": 1.8e-06,
        "meta_mean_motion_ddot": 0,
        "tle_line1": "1 41384U 16015A   25335.58205123  .00000180  00000+0  00000+0 0  9994",
        "tle_line2": "2 41384   4.8523 101.5772 0022366 179.3166  31.7686  1.00266800 35685"
      },
      "geometry": {
        "type": "Point",
        "coordinates": [
          -159.48066909437873,
          4.772677736066159
        ]
      }
    },
    {
      "type": "Feature",
      "properties": {
        "norad_id": 41434,
        "name": "BEIDOU-2 IGSO-6 (C13)",
        "group": "gnss",
        "lat": -33.92979987010905,
        "lon": -117.09173114625413,
        "alt_km": 35549.42992035679,
        "timestamp": "2025-12-02T06:27:53.256806+00:00",
        "meta_object_name": "BEIDOU-2 IGSO-6 (C13)",
        "meta_object_id": "2016-021A",
        "meta_epoch": "2025-11-29T16:01:16.721760",
        "meta_mean_motion": 1.00257137,
        "meta_eccentricity": 0.00590915,
        "meta_inclination": 59.9454,
        "meta_ra_of_asc_node": 40.0323,
        "meta_arg_of_pericenter": 231.0312,
        "meta_mean_anomaly": 130.2075,
        "meta_ephemeris_type": 0,
        "meta_classification_type": "U",
        "meta_norad_cat_id": 41434,
        "meta_element_set_no": 999,
        "meta_rev_at_epoch": 3548,
        "meta_bstar": 0,
        "meta_mean_motion_dot": -1.5e-06,
        "meta_mean_motion_ddot": 0,
        "tle_line1": "1 41434U 16021A   25333.66755465 -.00000150  00000+0  00000+0 0  9991",
        "tle_line2": "2 41434  59.9454  40.0323 0059091 231.0312 130.2075  1.00257137 35486"
      },
      "geometry": {
        "type": "Point",
        "coordinates": [
          -117.09173114625413,
          -33.92979987010905
        ]
      }
    },
    {
      "type": "Feature",
      "properties": {
        "norad_id": 41469,
        "name": "IRNSS-1G",
        "group": "gnss",
        "lat": -1.2652183203199328,
        "lon": -62.229825731380906,
        "alt_km": 35793.646287317584,
        "timestamp": "2025-12-02T06:27:53.256819+00:00",
        "meta_object_name": "IRNSS-1G",
        "meta_object_id": "2016-027A",
        "meta_epoch": "2025-12-01T20:42:51.672384",
        "meta_mean_motion": 1.00266862,
        "meta_eccentricity": 0.0001414,
        "meta_inclination": 4.7099,
        "meta_ra_of_asc_node": 102.3688,
        "meta_arg_of_pericenter": 16.5693,
        "meta_mean_anomaly": 32.2523,
        "meta_ephemeris_type": 0,
        "meta_classification_type": "U",
        "meta_norad_cat_id": 41469,
        "meta_element_set_no": 999,
        "meta_rev_at_epoch": 3520,
        "meta_bstar": 0,
        "meta_mean_motion_dot": -3.13e-06,
        "meta_mean_motion_ddot": 0,
        "tle_line1": "1 41469U 16027A   25335.86309806 -.00000313  00000+0  00000+0 0  9994",
        "tle_line2": "2 41469   4.7099 102.3688 0001414  16.5693  32.2523  1.00266862 35201"
      },
      "geometry": {
        "type": "Point",
        "coordinates": [
          -62.229825731380906,
          -1.2652183203199328
        ]
      }
    },
    {
      "type": "Feature",
      "properties": {
        "norad_id": 41549,
        "name": "GSAT0211 (GALILEO 14)",
        "group": "gnss",
        "lat": -10.774712215675313,
        "lon": -140.49378228578152,
        "alt_km": 23213.252394671756,
        "timestamp": "2025-12-02T06:27:53.256832+00:00",
        "meta_object_name": "GSAT0211 (GALILEO 14)",
        "meta_object_id": "2016-030A",
        "meta_epoch": "2025-11-28T18:30:37.119744",
        "meta_mean_motion": 1.70472998,
        "meta_eccentricity": 0.00037617,
        "meta_inclination": 55.1573,
        "meta_ra_of_asc_node": 227.2083,
        "meta_arg_of_pericenter": 3.3414,
        "meta_mean_anomaly": 356.7341,
        "meta_ephemeris_type": 0,
        "meta_classification_type": "U",
        "meta_norad_cat_id": 41549,
        "meta_element_set_no": 999,
        "meta_rev_at_epoch": 5925,
        "meta_bstar": 0,
        "meta_mean_motion_dot": 2.6e-07,
        "meta_mean_motion_ddot": 0,
        "tle_line1": "1 41549U 16030A   25332.77126296  .00000026  00000+0  00000+0 0  9994",
        "tle_line2": "2 41549  55.1573 227.2083 0003761   3.3414 356.7341  1.70472998 59254"
      },
      "geometry": {
        "type": "Point",
        "coordinates": [
          -140.49378228578152,
          -10.774712215675313
        ]
      }
    },
    {
      "type": "Feature",
      "properties": {
        "norad_id": 41550,
        "name": "GSAT0210 (GALILEO 13)",
        "group": "gnss",
        "lat": -7.269003122306767,
        "lon": 52.20080101717977,
        "alt_km": 23221.272672994546,
        "timestamp": "2025-12-02T06:27:53.256846+00:00",
        "meta_object_name": "GSAT0210 (GALILEO 13)",
        "meta_object_id": "2016-030B",
        "meta_epoch": "2025-12-01T09:00:06.320160",
        "meta_mean_motion": 1.70473417,
        "meta_eccentricity": 0.0001216,
        "meta_inclination": 55.1557,
        "meta_ra_of_asc_node": 227.1346,
        "meta_arg_of_pericenter": 241.6156,
        "meta_mean_anomaly": 118.4503,
        "meta_ephemeris_type": 0,
        "meta_classification_type": "U",
        "meta_norad_cat_id": 41550,
        "meta_element_set_no": 999,
        "meta_rev_at_epoch": 5929,
        "meta_bstar": 0,
        "meta_mean_motion_dot": 3.2e-07,
        "meta_mean_motion_ddot": 0,
        "tle_line1": "1 41550U 16030B   25335.37507315  .00000032  00000+0  00000+0 0  9997",
        "tle_line2": "2 41550  55.1557 227.1346 0001216 241.6156 118.4503  1.70473417 59296"
      },
      "geometry": {
        "type": "Point",
        "coordinates": [
          52.20080101717977,
          -7.269003122306767
        ]
      }
    },
    {
      "type": "Feature",
      "properties": {
        "norad_id": 41586,
        "name": "BEIDOU-2 G7 (C03)",
        "group": "gnss",
        "lat": -0.9074242533612269,
        "lon": -81.22661945725613,
        "alt_km": 35803.24444066151,
        "timestamp": "2025-12-02T06:27:53.256859+00:00",
        "meta_object_name": "BEIDOU-2 G7 (C03)",
        "meta_object_id": "2016-037A",
        "meta_epoch": "2025-12-01T19:28:34.240224",
        "meta_mean_motion": 1.00272547,
        "meta_eccentricity": 0.0004485,
        "meta_inclination": 1.728,
        "meta_ra_of_asc_node": 67.6674,
        "meta_arg_of_pericenter": 5.9435,
        "meta_mean_anomaly": 39.9401,
        "meta_ephemeris_type": 0,
        "meta_classification_type": "U",
        "meta_norad_cat_id": 41586,
        "meta_element_set_no": 999,
        "meta_rev_at_epoch": 491,
        "meta_bstar": 0,
        "meta_mean_motion_dot": -3.32e-06,
        "meta_mean_motion_ddot": 0,
        "tle_line1": "1 41586U 16037A   25335.81150741 -.00000332  00000+0  00000+0 0  9993",
        "tle_line2": "2 41586   1.7280  67.6674 0004485   5.9435  39.9401  1.00272547  4915"
      },
      "geometry": {
        "type": "Point",
        "coordinates": [
          -81.22661945725613,
          -0.9074242533612269
        ]
      }
    },
    {
      "type": "Feature",
      "properties": {
        "norad_id": 41589,
        "name": "EUTELSAT 117 WEST B (WAAS/PRN 131)",
        "group": "gnss",
        "lat": -0.015951147938872832,
        "lon": 51.33249706166225,
        "alt_km": 35786.1990310757,
        "timestamp": "2025-12-02T06:27:53.256872+00:00",
        "meta_object_name": "EUTELSAT 117 WEST B (WAAS/PRN 131)",
        "meta_object_id": "2016-038B",
        "meta_epoch": "2025-12-01T14:58:10.977024",
        "meta_mean_motion": 1.00272248,
        "meta_eccentricity": 1.08e-05,
        "meta_inclination": 0.0065,
        "meta_ra_of_asc_node": 141.8344,
        "meta_arg_of_pericenter": 143.4656,
        "meta_mean_anomaly": 252.9964,
        "meta_ephemeris_type": 0,
        "meta_classification_type": "U",
        "meta_norad_cat_id": 41589,
        "meta_element_set_no": 999,
        "meta_rev_at_epoch": 3468,
        "meta_bstar": 0,
        "meta_mean_motion_dot": 1e-07,
        "meta_mean_motion_ddot": 0,
        "tle_line1": "1 41589U 16038B   25335.62373816  .00000010  00000+0  00000+0 0  9998",
        "tle_line2": "2 41589   0.0065 141.8344 0000108 143.4656 252.9964  1.00272248 34687"
      },
      "geometry": {
        "type": "Point",
        "coordinates": [
          51.33249706166225,
          -0.015951147938872832
        ]
      }
    }
  ]
}